# Made by eph2tle, compiled Dec  1 2022 18:39:03
# Run at Sat Dec  3 11:48:48 2022
#
# No updates (headed back to earth for re-entry,  we hope!)
#
#    The following TLEs (Two-Line Elements) were generated by fitting
# a numerically-integrated ephemeris,  based on the orbit given below,
# to the SDP4/SGP4 models.  Each TLE is good for the interval between
# its epoch and the epoch of the subsequent TLE (usually one day).
# The maximum deviation between the numerically integrated ephemerides
# and the TLE-based ephemeris, in kilometers,  is given for each TLE
# as the "worst residual".
#
#    This fitting is done using the 'eph2tle' code packaged with Find_Orb.
# The code has details on how the TLEs were computed :
#
#    https://github.com/Bill-Gray/find_orb/eph2tle.cpp
#
#    Be warned:  the error given is that between the numerically
# integrated ephems and the TLE model.  There will usually be at
# least some additional difference between the ephems and the actual
# motion of the satellite,  especially if the ephemerides are based
# on a short arc.  If the following orbital elements say something
# like "[based on] 10 observations 2015 Jan. 1-13",  and the TLEs
# are for 2015 May,  the extrapolation may be tenuous at best.  If
# your application requires a specific level of accuracy,  you may
# want to contact me;  I can give you some idea as to the fit of the
# underlying data (and possibly TLEs based on newer data).
#
#   You can usually find the underlying observational data,  and the
# fitted orbit,  residuals,  ephemerides,  and sometimes some comments
# about the object,  among the pages listed at
#
#    https://www.projectpluto.com/pluto/mpecs/pseudo.htm
#
#    WARNING:  I computed "normal" TLEs for the first few days,  as
# the object was going to the moon,  and for the last few,  during its
# return.  While around/near the moon,  TLEs fail.  For that time span,
# an alternative model is used,  in which
# most of the traditional TLE data is replaced by six signed 8-digit hex
# numbers.  These six numbers are a state vector,  numerically integrated
# using a simplified force model.  This is necessary for objects at L2 or
# L1,  and sometimes for objects in high orbits where the SDP4/SGP4 model
# fails.  Some documentation is in 'get_el.cpp' in the source code at
# https://www.github.com/Bill-Gray/sat_code ; look for 'hex' in that file,
# with the actual integration done in 'sdp4.cpp'.  But be aware:  it's my
# own extension,  doesn't work with other code,  and is therefore used
# only when necessary.
#
#    Also,  if you use a TLE outside the "correct" time range (between
# its MJD and that of the next TLE),  all bets are off.  I've carefully
# computed and minimized the worst error over the "correct" time frame,
# but the ephemeris may (or may not) diverge wildly outside of it.
#
# Ephem range: 59899.500000 59924.500000 1.000000
# Created Sat Dec  3 11:47:55 2022
# Ephemeris start: 16 Nov 2022 12:00:00
# Ephemeris end:   11 Dec 2022 12:00:00
# Times are all TDT
# Positions/velocities are in equatorial J2000
# Orbital elements:  Orion
#    Perigee 2022 Dec 11.7244982 +/- 0.000438 TT = 17:23:16.64 (JD 2459925.2244982)
# Epoch 2022 Dec 11.5 TT = JDT 2459925.0                           Find_Orb
# M 352.4590450641 +/- 0.014          (J2000 equator)
# n  33.5902627230 +/- 0.00158        Peri.  345.9693809 +/- 0.0010
# a205334.17569 +/- 6.45              Node   222.1253432 +/- 0.00008
# e   0.968711166 +/- 4.02e-6         Incl.   85.7231211 +/- 0.00050
# P  10.72d             U  8.4
# q 6424.6667539 +/- 0.898    Q 404243.68462 +/- 12.5
# 104 of 193 observations 2022 Dec. 5-10; mean residual 0".080
# IMPACT at  11 Dec 2022 17:21:47.67 lat -16.13334 lon W119.63486
#
# 1 NoradU COSPAR   Epoch.epoch     dn/dt/2  d2n/dt2/6 BSTAR    T El# C
# 2 NoradU Inclina RAAscNode Eccent  ArgPeri MeanAno  MeanMotion Rev# C

# Worst residual: 50.80 km
# MJD 59899.500000 (2022 Nov 16 12:00)
Orion
1 54257U 22156A   22320.99919926  .00000000  00000-0  00000-0 0 17980
2 54257 029.6268 009.8266 9602116 019.7577 026.6972 00.09936099    07

# Worst residual: 23.39 km
# MJD 59900.500000 (2022 Nov 17 12:00)
Orion
1 54257U 22156A   22321.99919926  .00000000  00000-0  00000-0 0 17981
2 54257 029.7203 009.8316 9604500 019.6544 062.7911 00.09985452    06

# Worst residual: 41.41 km
# MJD 59901.500000 (2022 Nov 18 12:00)
Orion
1 54257U 22156A   22322.99919926  .00000000  00000-0  00000-0 0 17982
2 54257 029.7558 009.8417 9618968 019.4540 099.2824 00.10053913    06

# Worst residual: 120.20 km
# MJD 59902.500000 (2022 Nov 19 12:00)
Orion
1 54257U 22156A   22323.99919926  .00000000  00000-0  00000-0 0 17983
2 54257 029.9522 009.9414 9662777 019.0500 136.4608 00.10132059    09

# Worst residual: 135.76 km
# MJD 59903.500000 (2022 Nov 20 12:00)
Orion
1 54257U 22156A   22324.49919926 -005K0QIR -002NV0XS -000YCWJPH 17987
2 54257                          -0000KI07 -00014J8W -0000M2VJ     00

# Worst residual: 38775.12 km
# MJD 59904.500000 (2022 Nov 21 12:00)
Orion
1 54257U 22156A   22325.49919926 -005KUEJ1 -002QW10P -0010M2IHH 17983
2 54257                          +0000AQM0 +00032JSV +0001EDYM     01

# Worst residual: 86.46 km
# MJD 59905.500000 (2022 Nov 22 12:00)
Orion
1 54257U 22156A   22326.49919926 -003VM12C -003SAH2D -001OI0V8H 17982
2 54257                          +0006GRQH -0004IZ8O -0002SJVR     07

# Worst residual: 407.27 km
# MJD 59906.500000 (2022 Nov 23 12:00)
Orion
1 54257U 22156A   22327.49919926 -002ALEIT -004PGG18 -0029MSZ6H 17985
2 54257                          +0006QUNZ -000345AF -00022X8V     07

# Worst residual: 42.50 km
# MJD 59907.500000 (2022 Nov 24 12:00)
Orion
1 54257U 22156A   22328.49919926 -000NTC96 -0059ZY79 -002O3TH2H 17986
2 54257                          +0006SZ04 -0001MEQU -0001BSLK     09

# Worst residual: 3811.24 km
# MJD 59908.500000 (2022 Nov 25 12:00)
Orion
1 54257U 22156A   22329.49919926 +000XTVHL -005HYTVA -002WDNHRH 17981
2 54257                          +0006H8IT -000091GV -0000LIXK     01

# Worst residual: 45.14 km
# MJD 59909.500000 (2022 Nov 26 12:00)
Orion
1 54257U 22156A   22330.49919926 +002DSR1C -005HN179 -002ZX2O4H 17989
2 54257                          +0005K0FM +0000E03Z -00006W94     03

# Worst residual: 45.91 km
# MJD 59910.500000 (2022 Nov 27 12:00)
Orion
1 54257U 22156A   22331.49919926 +003M6P9C -0059RH37 -002YZPAUH 17981
2 54257                          +0004OPHK +0001F0M7 +0000EEWD     07

# Worst residual: 34.93 km
# MJD 59911.500000 (2022 Nov 28 12:00)
Orion
1 54257U 22156A   22332.49919926 +004MB5AD -004T96X0 -002T0TFWH 17988
2 54257                          +0003NPUO +0002EOCT +0000ZG1T     01

# Worst residual: 24.27 km
# MJD 59912.500000 (2022 Nov 29 12:00)
Orion
1 54257U 22156A   22333.49919926 +005DCB6B -00442KP7 -002HXMFZH 17989
2 54257                          +0002LRJU +0003F4R3 +0001KXG2     00

# Worst residual: 487.71 km
# MJD 59913.500000 (2022 Nov 30 12:00)
Orion
1 54257U 22156A   22334.49919926 +005VEEW9 -0036D5QV -0021TBERH 17981
2 54257                          +0001KL8Q +0004CYPZ +00025006     01

# Worst residual: 5840.30 km
# MJD 59914.500000 (2022 Dec  1 12:00)
Orion
1 54257U 22156A   22335.49919926 +0064E32D -0020U0NU -001H1X3WH 17983
2 54257                          +0000H8J6 +00057OO0 +0002NDPK     03

# Worst residual: 22.85 km
# MJD 59915.500000 (2022 Dec  2 12:00)
Orion
1 54257U 22156A   22336.49919926 +00676UI5 -000P91R0 -000SC0E9H 17985
2 54257                          -0000076P +0005RORW +00031WPU     08

# Worst residual: 38.36 km
# MJD 59916.500000 (2022 Dec  3 12:00)
Orion
1 54257U 22156A   22337.49919926 +0060VS17 +000Q9VNA -0000OS90H 17984
2 54257                          -0001H1FP +0006485D +0003BOIW     04

# Worst residual: 167.24 km
# MJD 59917.500000 (2022 Dec  4 12:00)
Orion
1 54257U 22156A   22338.49919926 +005HO2L9 +0027XAE1 +000SSB24H 17984
2 54257                          -0002YEC6 +0006AP31 +0003HLS5     02

# Worst residual: 41360.53 km
# MJD 59918.500000 (2022 Dec  5 12:00)
Orion
1 54257U 22156A   22339.49919926 +004NA1GA +003TH9AY +001OCKJWH 17981
2 54257                          -0003OJHG +0007T4HY +00042LJY     06

# Worst residual: 137.19 km
# MJD 59919.500000 (2022 Dec  6 12:00)
Orion
1 54257U 22156A   22340.99919926  .00000000  00000-0  00000-0 0 17982
2 54257 086.2467 222.9812 9671833 345.1441 206.0019 00.09359480    09

# Worst residual: 40.69 km
# MJD 59920.500000 (2022 Dec  7 12:00)
Orion
1 54257U 22156A   22341.99919926  .00000000  00000-0  00000-0 0 17983
2 54257 083.7777 223.5273 9691653 345.0877 241.2123 00.09342422    02

# Worst residual: 22.16 km
# MJD 59921.500000 (2022 Dec  8 12:00)
Orion
1 54257U 22156A   22342.99919926  .00000000  00000-0  00000-0 0 17984
2 54257 083.8995 223.5227 9692584 345.0336 275.5901 00.09297104    08

# Worst residual: 10.88 km
# MJD 59922.500000 (2022 Dec  9 12:00)
Orion
1 54257U 22156A   22343.99919926  .00000000  00000-0  00000-0 0 17985
2 54257 084.1141 223.5079 9690262 344.9648 309.2819 00.09251540    02

# Worst residual: 30.13 km
# MJD 59923.500000 (2022 Dec 10 12:00)
Orion
1 54257U 22156A   22344.99919926  .00000000  00000-0  00000-0 0 17986
2 54257 083.6394 223.5002 9690131 344.9616 342.4574 00.09232850    02
Avg worst resid: 48.21 km
Worst residual in entire run: 137.19 km on MJD 59919.5
       1     3     10    30    100   300   1K    3K    10K   km
     0     0     0     2     2     1     0     0     0     0
